SL-16 R/B               
1 24298U 96051B   25312.70641448 -.00000033  00000+0  89909-5 0  9999
2 24298  70.7598  71.3173 0017866 304.5038  55.4394 14.12392409504561
ORBVIEW 2 (SEASTAR)     
1 24883U 97037A   25312.82870535  .00000534  00000+0  20219-3 0  9990
2 24883  98.8446 109.0538 0003079  67.4690 292.6820 14.35376907491135
SL-16 R/B               
1 25400U 98043G   25312.83858856  .00000147  00000+0  80384-4 0  9997
2 25400  98.8066 260.4768 0010065  11.2895 348.8508 14.26012300421766
SL-16 R/B               
1 25407U 98045B   25312.71909531  .00000019  00000+0  33733-4 0  9994
2 25407  71.0115  75.9676 0008809 223.7335 136.3091 14.16169014409970
CZ-4B R/B               
1 25732U 99025C   25312.62081837  .00000136  00000+0  86715-4 0  9992
2 25732  98.6820 354.6551 0036594 334.6833 176.8882 14.18230436371003
OKEAN-O                 
1 25860U 99039A   25312.58232527  .00001307  00000+0  17937-3 0  9998
2 25860  97.9652   8.5723 0001563  70.0859 290.0521 14.80073515416475
SL-16 R/B               
1 25861U 99039B   25312.61038132  .00001041  00000+0  13955-3 0  9990
2 25861  98.0175   6.7514 0013567 292.4049  67.5726 14.81510858418938
DELTA 2 R/B             
1 25876U 99041E   25312.72179382  .00001321  00000+0  25162-3 0  9998
2 25876  51.7631  64.2237 0504806 351.5247   7.7391 14.11277655345948
HELIOS 1B               
1 25977U 99064A   25312.69132863  .00003090  00000+0  35089-3 0  9998
2 25977  98.1753 206.3518 0002568  88.6711 271.4798 14.87066835667276
TERRA                   
1 25994U 99068A   25312.84223546  .00000853  00000+0  18344-3 0  9996
2 25994  97.9796   5.7610 0002106 171.4716 308.3248 14.60891767377434
SL-16 R/B               
1 26070U 00006B   25312.56187073  .00000065  00000+0  57200-4 0  9999
2 26070  71.0040 352.5227 0016615 357.4256   2.6779 14.15802048331412
