CCSDS_OMM_VERS = 2.0
CREATION_DATE  = 
ORIGINATOR     = 

OBJECT_NAME    = SL-16 R/B
OBJECT_ID      = 1996-051B
CENTER_NAME    = EARTH
REF_FRAME      = TEME
TIME_SYSTEM    = UTC
MEAN_ELEMENT_THEORY = SGP/SGP4

EPOCH          = 2025-11-08T16:57:14.211072
MEAN_MOTION    = 14.12392409
ECCENTRICITY   = .0017866
INCLINATION    = 70.7598
RA_OF_ASC_NODE = 71.3173
ARG_OF_PERICENTER = 304.5038
MEAN_ANOMALY   = 55.4394

EPHEMERIS_TYPE = 0
CLASSIFICATION_TYPE = U
NORAD_CAT_ID   = 24298
ELEMENT_SET_NO = 999
REV_AT_EPOCH   = 50456
BSTAR          = .89909E-5
MEAN_MOTION_DOT = -.33E-6
MEAN_MOTION_DDOT = 0

CCSDS_OMM_VERS = 2.0
CREATION_DATE  = 
ORIGINATOR     = 

OBJECT_NAME    = ORBVIEW 2 (SEASTAR)
OBJECT_ID      = 1997-037A
CENTER_NAME    = EARTH
REF_FRAME      = TEME
TIME_SYSTEM    = UTC
MEAN_ELEMENT_THEORY = SGP/SGP4

EPOCH          = 2025-11-08T19:53:20.142240
MEAN_MOTION    = 14.35376907
ECCENTRICITY   = .0003079
INCLINATION    = 98.8446
RA_OF_ASC_NODE = 109.0538
ARG_OF_PERICENTER = 67.4690
MEAN_ANOMALY   = 292.6820

EPHEMERIS_TYPE = 0
CLASSIFICATION_TYPE = U
NORAD_CAT_ID   = 24883
ELEMENT_SET_NO = 999
REV_AT_EPOCH   = 49113
BSTAR          = .20219E-3
MEAN_MOTION_DOT = .534E-5
MEAN_MOTION_DDOT = 0

CCSDS_OMM_VERS = 2.0
CREATION_DATE  = 
ORIGINATOR     = 

OBJECT_NAME    = SL-16 R/B
OBJECT_ID      = 1998-043G
CENTER_NAME    = EARTH
REF_FRAME      = TEME
TIME_SYSTEM    = UTC
MEAN_ELEMENT_THEORY = SGP/SGP4

EPOCH          = 2025-11-08T20:07:34.051584
MEAN_MOTION    = 14.26012300
ECCENTRICITY   = .0010065
INCLINATION    = 98.8066
RA_OF_ASC_NODE = 260.4768
ARG_OF_PERICENTER = 11.2895
MEAN_ANOMALY   = 348.8508

EPHEMERIS_TYPE = 0
CLASSIFICATION_TYPE = U
NORAD_CAT_ID   = 25400
ELEMENT_SET_NO = 999
REV_AT_EPOCH   = 42176
BSTAR          = .80384E-4
MEAN_MOTION_DOT = .147E-5
MEAN_MOTION_DDOT = 0

CCSDS_OMM_VERS = 2.0
CREATION_DATE  = 
ORIGINATOR     = 

OBJECT_NAME    = SL-16 R/B
OBJECT_ID      = 1998-045B
CENTER_NAME    = EARTH
REF_FRAME      = TEME
TIME_SYSTEM    = UTC
MEAN_ELEMENT_THEORY = SGP/SGP4

EPOCH          = 2025-11-08T17:15:29.834784
MEAN_MOTION    = 14.16169014
ECCENTRICITY   = .0008809
INCLINATION    = 71.0115
RA_OF_ASC_NODE = 75.9676
ARG_OF_PERICENTER = 223.7335
MEAN_ANOMALY   = 136.3091

EPHEMERIS_TYPE = 0
CLASSIFICATION_TYPE = U
NORAD_CAT_ID   = 25407
ELEMENT_SET_NO = 999
REV_AT_EPOCH   = 40997
BSTAR          = .33733E-4
MEAN_MOTION_DOT = .19E-6
MEAN_MOTION_DDOT = 0

CCSDS_OMM_VERS = 2.0
CREATION_DATE  = 
ORIGINATOR     = 

OBJECT_NAME    = CZ-4B R/B
OBJECT_ID      = 1999-025C
CENTER_NAME    = EARTH
REF_FRAME      = TEME
TIME_SYSTEM    = UTC
MEAN_ELEMENT_THEORY = SGP/SGP4

EPOCH          = 2025-11-08T14:53:58.707168
MEAN_MOTION    = 14.18230436
ECCENTRICITY   = .0036594
INCLINATION    = 98.6820
RA_OF_ASC_NODE = 354.6551
ARG_OF_PERICENTER = 334.6833
MEAN_ANOMALY   = 176.8882

EPHEMERIS_TYPE = 0
CLASSIFICATION_TYPE = U
NORAD_CAT_ID   = 25732
ELEMENT_SET_NO = 999
REV_AT_EPOCH   = 37100
BSTAR          = .86715E-4
MEAN_MOTION_DOT = .136E-5
MEAN_MOTION_DDOT = 0

CCSDS_OMM_VERS = 2.0
CREATION_DATE  = 
ORIGINATOR     = 

OBJECT_NAME    = OKEAN-O
OBJECT_ID      = 1999-039A
CENTER_NAME    = EARTH
REF_FRAME      = TEME
TIME_SYSTEM    = UTC
MEAN_ELEMENT_THEORY = SGP/SGP4

EPOCH          = 2025-11-08T13:58:32.903328
MEAN_MOTION    = 14.80073515
ECCENTRICITY   = .0001563
INCLINATION    = 97.9652
RA_OF_ASC_NODE = 8.5723
ARG_OF_PERICENTER = 70.0859
MEAN_ANOMALY   = 290.0521

EPHEMERIS_TYPE = 0
CLASSIFICATION_TYPE = U
NORAD_CAT_ID   = 25860
ELEMENT_SET_NO = 999
REV_AT_EPOCH   = 41647
BSTAR          = .17937E-3
MEAN_MOTION_DOT = .1307E-4
MEAN_MOTION_DDOT = 0

CCSDS_OMM_VERS = 2.0
CREATION_DATE  = 
ORIGINATOR     = 

OBJECT_NAME    = SL-16 R/B
OBJECT_ID      = 1999-039B
CENTER_NAME    = EARTH
REF_FRAME      = TEME
TIME_SYSTEM    = UTC
MEAN_ELEMENT_THEORY = SGP/SGP4

EPOCH          = 2025-11-08T14:38:56.946048
MEAN_MOTION    = 14.81510858
ECCENTRICITY   = .0013567
INCLINATION    = 98.0175
RA_OF_ASC_NODE = 6.7514
ARG_OF_PERICENTER = 292.4049
MEAN_ANOMALY   = 67.5726

EPHEMERIS_TYPE = 0
CLASSIFICATION_TYPE = U
NORAD_CAT_ID   = 25861
ELEMENT_SET_NO = 999
REV_AT_EPOCH   = 41893
BSTAR          = .13955E-3
MEAN_MOTION_DOT = .1041E-4
MEAN_MOTION_DDOT = 0

CCSDS_OMM_VERS = 2.0
CREATION_DATE  = 
ORIGINATOR     = 

OBJECT_NAME    = DELTA 2 R/B
OBJECT_ID      = 1999-041E
CENTER_NAME    = EARTH
REF_FRAME      = TEME
TIME_SYSTEM    = UTC
MEAN_ELEMENT_THEORY = SGP/SGP4

EPOCH          = 2025-11-08T17:19:22.986048
MEAN_MOTION    = 14.11277655
ECCENTRICITY   = .0504806
INCLINATION    = 51.7631
RA_OF_ASC_NODE = 64.2237
ARG_OF_PERICENTER = 351.5247
MEAN_ANOMALY   = 7.7391

EPHEMERIS_TYPE = 0
CLASSIFICATION_TYPE = U
NORAD_CAT_ID   = 25876
ELEMENT_SET_NO = 999
REV_AT_EPOCH   = 34594
BSTAR          = .25162E-3
MEAN_MOTION_DOT = .1321E-4
MEAN_MOTION_DDOT = 0

CCSDS_OMM_VERS = 2.0
CREATION_DATE  = 
ORIGINATOR     = 

OBJECT_NAME    = HELIOS 1B
OBJECT_ID      = 1999-064A
CENTER_NAME    = EARTH
REF_FRAME      = TEME
TIME_SYSTEM    = UTC
MEAN_ELEMENT_THEORY = SGP/SGP4

EPOCH          = 2025-11-08T16:35:30.793632
MEAN_MOTION    = 14.87066835
ECCENTRICITY   = .0002568
INCLINATION    = 98.1753
RA_OF_ASC_NODE = 206.3518
ARG_OF_PERICENTER = 88.6711
MEAN_ANOMALY   = 271.4798

EPHEMERIS_TYPE = 0
CLASSIFICATION_TYPE = U
NORAD_CAT_ID   = 25977
ELEMENT_SET_NO = 999
REV_AT_EPOCH   = 66727
BSTAR          = .35089E-3
MEAN_MOTION_DOT = .309E-4
MEAN_MOTION_DDOT = 0

CCSDS_OMM_VERS = 2.0
CREATION_DATE  = 
ORIGINATOR     = 

OBJECT_NAME    = TERRA
OBJECT_ID      = 1999-068A
CENTER_NAME    = EARTH
REF_FRAME      = TEME
TIME_SYSTEM    = UTC
MEAN_ELEMENT_THEORY = SGP/SGP4

EPOCH          = 2025-11-08T20:12:49.143744
MEAN_MOTION    = 14.60891767
ECCENTRICITY   = .0002106
INCLINATION    = 97.9796
RA_OF_ASC_NODE = 5.7610
ARG_OF_PERICENTER = 171.4716
MEAN_ANOMALY   = 308.3248

EPHEMERIS_TYPE = 0
CLASSIFICATION_TYPE = U
NORAD_CAT_ID   = 25994
ELEMENT_SET_NO = 999
REV_AT_EPOCH   = 37743
BSTAR          = .18344E-3
MEAN_MOTION_DOT = .853E-5
MEAN_MOTION_DDOT = 0

CCSDS_OMM_VERS = 2.0
CREATION_DATE  = 
ORIGINATOR     = 

OBJECT_NAME    = SL-16 R/B
OBJECT_ID      = 2000-006B
CENTER_NAME    = EARTH
REF_FRAME      = TEME
TIME_SYSTEM    = UTC
MEAN_ELEMENT_THEORY = SGP/SGP4

EPOCH          = 2025-11-08T13:29:05.631072
MEAN_MOTION    = 14.15802048
ECCENTRICITY   = .0016615
INCLINATION    = 71.0040
RA_OF_ASC_NODE = 352.5227
ARG_OF_PERICENTER = 357.4256
MEAN_ANOMALY   = 2.6779

EPHEMERIS_TYPE = 0
CLASSIFICATION_TYPE = U
NORAD_CAT_ID   = 26070
ELEMENT_SET_NO = 999
REV_AT_EPOCH   = 33141
BSTAR          = .572E-4
MEAN_MOTION_DOT = .65E-6
MEAN_MOTION_DDOT = 0

